[{"OBJECT_NAME":"STARLINK-5983","OBJECT_ID":"2023-094G","EPOCH":"2026-03-09T22:00:01.999584","MEAN_MOTION":15.16743376,"ECCENTRICITY":0.00013318,"INCLINATION":43.0022,"RA_OF_ASC_NODE":28.7705,"ARG_OF_PERICENTER":223.3645,"MEAN_ANOMALY":292.738,"EPHEMERIS_TYPE":0,"CLASSIFICATION_TYPE":"U","NORAD_CAT_ID":57224,"ELEMENT_SET_NO":999,"REV_AT_EPOCH":577,"BSTAR":0.060915258,"MEAN_MOTION_DOT":0.01320603,"MEAN_MOTION_DDOT":0},{"OBJECT_NAME":"GOOD ANCESTOR KILAKILA","OBJECT_ID":"2025-135A","EPOCH":"2026-03-09T20:23:34.960416","MEAN_MOTION":15.223265,"ECCENTRICITY":0.00056529,"INCLINATION":97.4506,"RA_OF_ASC_NODE":184.7346,"ARG_OF_PERICENTER":162.0939,"MEAN_ANOMALY":198.0498,"EPHEMERIS_TYPE":0,"CLASSIFICATION_TYPE":"U","NORAD_CAT_ID":64528,"ELEMENT_SET_NO":999,"REV_AT_EPOCH":3976,"BSTAR":0.00051974795,"MEAN_MOTION_DOT":0.00011925,"MEAN_MOTION_DDOT":0}]
